LEMUR-2-KREMPEL-BRO1    
1 63357U 25061G   26063.64211045  .00006287  00000+0  35159-3 0  9996
2 63357  97.5522  40.2850 0017158 248.0606 111.8802 15.13706800 51810
LEMUR-2-LANGER2SPACE    
1 63358U 25061H   26063.44933665  .00007097  00000+0  40019-3 0  9995
2 63358  97.5525  39.9504 0015063 258.6505 101.3034 15.13393196 51779
LEMUR-2-BALTO           
1 63395U 25052BH  26063.22079480  .00010330  00000+0  86015-3 0  9998
2 63395  97.7002 318.1108 0002999  15.1172 345.0140 14.98839182 53032
