[{"OBJECT_NAME":"LEMUR-2-KREMPEL-BRO1","OBJECT_ID":"2025-061G","EPOCH":"2026-03-04T15:24:38.342016","MEAN_MOTION":15.137068,"ECCENTRICITY":0.0017158,"INCLINATION":97.5522,"RA_OF_ASC_NODE":40.285,"ARG_OF_PERICENTER":248.0606,"MEAN_ANOMALY":111.8802,"EPHEMERIS_TYPE":0,"CLASSIFICATION_TYPE":"U","NORAD_CAT_ID":63357,"ELEMENT_SET_NO":999,"REV_AT_EPOCH":5181,"BSTAR":0.00035159,"MEAN_MOTION_DOT":6.287e-5,"MEAN_MOTION_DDOT":0},{"OBJECT_NAME":"LEMUR-2-LANGER2SPACE","OBJECT_ID":"2025-061H","EPOCH":"2026-03-04T10:47:02.686560","MEAN_MOTION":15.13393196,"ECCENTRICITY":0.00150639,"INCLINATION":97.5525,"RA_OF_ASC_NODE":39.9504,"ARG_OF_PERICENTER":258.6505,"MEAN_ANOMALY":101.3034,"EPHEMERIS_TYPE":0,"CLASSIFICATION_TYPE":"U","NORAD_CAT_ID":63358,"ELEMENT_SET_NO":999,"REV_AT_EPOCH":5177,"BSTAR":0.00040018609,"MEAN_MOTION_DOT":7.097e-5,"MEAN_MOTION_DDOT":0},{"OBJECT_NAME":"LEMUR-2-BALTO","OBJECT_ID":"2025-052BH","EPOCH":"2026-03-04T05:17:56.670720","MEAN_MOTION":14.98839182,"ECCENTRICITY":0.00029991,"INCLINATION":97.7002,"RA_OF_ASC_NODE":318.1108,"ARG_OF_PERICENTER":15.1172,"MEAN_ANOMALY":345.014,"EPHEMERIS_TYPE":0,"CLASSIFICATION_TYPE":"U","NORAD_CAT_ID":63395,"ELEMENT_SET_NO":999,"REV_AT_EPOCH":5303,"BSTAR":0.00086014767,"MEAN_MOTION_DOT":0.0001033,"MEAN_MOTION_DDOT":0}]
